NORAD_CAT_ID,OBJECT_NAME,OBJECT_TYPE,EPOCH,MEAN_MOTION,ECCENTRICITY,INCLINATION,RA_OF_ASC_NODE,ARG_OF_PERICENTER,MEAN_ANOMALY,BSTAR,MEAN_MOTION_DOT,MEAN_MOTION_DDOT,TLE_LINE0,TLE_LINE1,TLE_LINE2,SEMIMAJOR_AXIS,PERIOD,APOGEE,PERIGEE,DECAYED
54774.0,STARLINK-5454,PAYLOAD,2023-04-01 10:33:14,15.08822896,0.0001704,53.2185,167.2429,94.1097,266.009,-0.0001485,-2.65e-05,0.0,0 STARLINK-5454,1 54774U 22175S   23091.43975258 -.00002650  00000-0 -14850-3 0  9998,2 54774  53.2185 167.2429 0001704  94.1097 266.0090 15.08822896 15947,6917.933,95.439,540.976,538.619,0.0
54774.0,STARLINK-5454,PAYLOAD,2023-04-02 05:37:51,15.08828415,0.0001513,53.2198,163.6754,97.4026,262.7138,5.8877e-05,6.49e-06,0.0,0 STARLINK-5454,1 54774U 22175S   23092.23462497  .00000649  00000-0  58877-4 0  9995,2 54774  53.2198 163.6754 0001513  97.4026 262.7138 15.08828415 16061,6917.916,95.438,540.827,538.734,0.0
54774.0,STARLINK-5454,PAYLOAD,2023-04-02 13:34:46,15.08846205,0.0001371,53.2196,162.1883,93.9296,266.1853,-2.1199e-05,-6.25e-06,0.0,0 STARLINK-5454,1 54774U 22175S   23092.56581755 -.00000625  00000-0 -21199-4 0  9993,2 54774  53.2196 162.1883 0001371  93.9296 266.1853 15.08846205 16113,6917.861,95.437,540.675,538.778,0.0
54774.0,STARLINK-5454,PAYLOAD,2023-04-03 13:25:33,15.08844406,0.0001678,53.2177,157.723,99.0415,261.0767,0.00011727,1.579e-05,0.0,0 STARLINK-5454,1 54774U 22175S   23093.55941290  .00001579  00000-0  11727-3 0  9999,2 54774  53.2177 157.7230 0001678  99.0415 261.0767 15.08844406 18423,6917.867,95.437,540.893,538.571,0.0
54774.0,STARLINK-5454,PAYLOAD,2023-04-03 15:00:56,15.08842938,0.0001968,53.218,157.4257,106.2909,253.8299,0.00013433,1.851e-05,0.0,0 STARLINK-5454,1 54774U 22175S   23093.62565285  .00001851  00000-0  13433-3 0  9992,2 54774  53.2180 157.4257 0001968 106.2909 253.8299 15.08842938 16272,6917.871,95.437,541.098,538.375,0.0
54774.0,STARLINK-5454,PAYLOAD,2023-04-03 21:22:29,15.08836391,0.0001579,53.2179,156.2363,81.5768,278.5403,3.675e-05,2.97e-06,0.0,0 STARLINK-5454,1 54774U 22175S   23093.89062093  .00000297  00000-0  36750-4 0  9991,2 54774  53.2179 156.2363 0001579  81.5768 278.5403 15.08836391 18472,6917.891,95.438,540.849,538.664,0.0
54774.0,STARLINK-5454,PAYLOAD,2023-04-04 05:19:25,15.08841593,0.0001613,53.2174,154.7525,84.4108,275.7068,-5.1758e-05,-1.112e-05,0.0,0 STARLINK-5454,1 54774U 22175S   23094.22182251 -.00001112  00000-0 -51758-4 0  9992,2 54774  53.2174 154.7525 0001613  84.4108 275.7068 15.08841593 16361,6917.876,95.437,540.856,538.625,0.0
54774.0,STARLINK-5454,PAYLOAD,2023-04-04 11:40:58,15.08841306,0.00016,53.2185,153.5649,81.4632,278.6541,-5.2783e-05,-1.128e-05,0.0,0 STARLINK-5454,1 54774U 22175S   23094.48678250 -.00001128  00000-0 -52783-4 0  9995,2 54774  53.2185 153.5649 0001600  81.4632 278.6541 15.08841306 18566,6917.876,95.437,540.848,538.635,0.0
54774.0,STARLINK-5454,PAYLOAD,2023-04-05 09:56:22,15.08840519,0.0001575,53.2184,149.4018,79.0379,281.079,-9.3482e-05,-1.776e-05,0.0,0 STARLINK-5454,1 54774U 22175S   23095.41414397 -.00001776  00000-0 -93482-4 0  9999,2 54774  53.2184 149.4018 0001575  79.0379 281.0790 15.08840519 18706,6917.879,95.438,540.833,538.654,0.0
54774.0,STARLINK-5454,PAYLOAD,2023-04-06 09:47:08,15.08835416,0.0001788,53.2178,144.9405,90.9661,269.1536,7.7617e-05,9.47e-06,0.0,0 STARLINK-5454,1 54774U 22175S   23096.40774023  .00000947  00000-0  77617-4 0  9993,2 54774  53.2178 144.9405 0001788  90.9661 269.1536 15.08835416 18852,6917.894,95.438,540.996,538.522,0.0
54774.0,STARLINK-5454,PAYLOAD,2023-04-07 06:27:09,15.08836603,0.000145,53.2178,141.0737,97.7527,262.363,1.0043e-05,-1.28e-06,0.0,0 STARLINK-5454,1 54774U 22175S   23097.26886170 -.00000128  00000-0  10043-4 0  9997,2 54774  53.2178 141.0737 0001450  97.7527 262.3630 15.08836603 16824,6917.891,95.438,540.759,538.753,0.0
54774.0,STARLINK-5454,PAYLOAD,2023-04-07 09:37:55,15.08837293,0.0001448,53.218,140.4792,97.3075,262.8082,1.4831e-05,-5.2e-07,0.0,0 STARLINK-5454,1 54774U 22175S   23097.40134126 -.00000052  00000-0  14831-4 0  9995,2 54774  53.2180 140.4792 0001448  97.3075 262.8082 15.08837293 19007,6917.889,95.438,540.755,538.752,0.0
54774.0,STARLINK-5454,PAYLOAD,2023-04-08 07:53:19,15.08837511,0.0001486,53.2181,136.3162,103.9275,256.1883,-2.4282e-05,-6.74e-06,0.0,0 STARLINK-5454,1 54774U 22175S   23098.32870311 -.00000674  00000-0 -24282-4 0  9992,2 54774  53.2181 136.3162 0001486 103.9275 256.1883 15.08837511 16983,6917.888,95.438,540.781,538.725,0.0
54774.0,STARLINK-5454,PAYLOAD,2023-04-09 09:19:30,15.08834626,0.0001365,53.218,131.5586,100.8231,259.2915,-1.9706e-05,-6.01e-06,0.0,0 STARLINK-5454,1 54774U 22175S   23099.38854699 -.00000601  00000-0 -19706-4 0  9995,2 54774  53.2180 131.5586 0001365 100.8231 259.2915 15.08834626 17146,6917.897,95.438,540.706,538.818,0.0
54774.0,STARLINK-5454,PAYLOAD,2023-04-09 18:51:49,15.08835,0.0001338,53.2181,129.7745,101.466,258.6482,1.0742e-06,-2.71e-06,0.0,0 STARLINK-5454,1 54774U 22175S   23099.78598688 -.00000271  00000-0  10742-5 0  9996,2 54774  53.2181 129.7745 0001338 101.4660 258.6482 15.08835000 19361,6917.896,95.438,540.686,538.835,0.0
54774.0,STARLINK-5454,PAYLOAD,2023-04-10 07:34:54,15.08838711,0.000131,53.218,127.3953,101.9865,258.1274,2.6199e-05,1.29e-06,0.0,0 STARLINK-5454,1 54774U 22175S   23100.31590438  .00000129  00000-0  26199-4 0  9996,2 54774  53.2180 127.3953 0001310 101.9865 258.1274 15.08838711 19442,6917.884,95.438,540.656,538.843,0.0
54774.0,STARLINK-5454,PAYLOAD,2023-04-11 09:01:04,15.08839733,0.0001273,53.2179,122.6371,100.3383,259.7752,3.4793e-05,2.66e-06,0.0,0 STARLINK-5454,1 54774U 22175S   23101.37574409  .00000266  00000-0  34793-4 0  9994,2 54774  53.2179 122.6371 0001273 100.3383 259.7752 15.08839733 17449,6917.881,95.438,540.627,538.866,0.0
54774.0,STARLINK-5454,PAYLOAD,2023-04-11 18:33:23,15.0883551,0.000127,53.2172,120.8522,86.6204,273.4934,-1.0823e-05,-4.6e-06,0.0,0 STARLINK-5454,1 54774U 22175S   23101.77318913 -.00000460  00000-0 -10823-4 0  9990,2 54774  53.2172 120.8522 0001270  86.6204 273.4934 15.08835510 19665,6917.894,95.438,540.638,538.881,0.0
54774.0,STARLINK-5454,PAYLOAD,2023-04-12 05:41:05,15.08834164,0.0001406,53.2174,118.771,85.1335,274.9818,-4.2315e-05,-9.61e-06,0.0,0 STARLINK-5454,1 54774U 22175S   23102.23687272 -.00000961  00000-0 -42315-4 0  9996,2 54774  53.2174 118.7710 0001406  85.1335 274.9818 15.08834164 17571,6917.898,95.438,540.736,538.791,0.0
54774.0,STARLINK-5454,PAYLOAD,2023-04-12 08:51:52,15.08835077,0.0001442,53.218,118.177,82.0861,278.0295,-3.9217e-05,-9.12e-06,0.0,0 STARLINK-5454,1 54774U 22175S   23102.36935267 -.00000912  00000-0 -39217-4 0  9993,2 54774  53.2180 118.1770 0001442  82.0861 278.0295 15.08835077 19758,6917.895,95.438,540.758,538.763,0.0
54774.0,STARLINK-5454,PAYLOAD,2023-04-13 10:18:01,15.08842058,0.0001424,53.2175,113.4184,83.3546,276.7608,1.8285e-05,3e-08,0.0,0 STARLINK-5454,1 54774U 22175S   23103.42918694  .00000003  00000-0  18285-4 0  9997,2 54774  53.2175 113.4184 0001424  83.3546 276.7608 15.08842058 19911,6917.874,95.437,540.724,538.754,0.0
54774.0,STARLINK-5454,PAYLOAD,2023-04-13 18:14:57,15.08837207,0.0001469,53.2179,111.932,81.6062,278.5097,1.5999e-05,-3.3e-07,0.0,0 STARLINK-5454,1 54774U 22175S   23103.76038991 -.00000033  00000-0  15999-4 0  9990,2 54774  53.2179 111.9320 0001469  81.6062 278.5097 15.08837207 17801,6917.889,95.438,540.77,538.738,0.0
54774.0,STARLINK-5454,PAYLOAD,2023-04-14 06:58:02,15.08839867,0.0001422,53.2175,109.5533,78.1113,282.0038,5.0962e-05,5.23e-06,0.0,0 STARLINK-5454,1 54774U 22175S   23104.29030715  .00000523  00000-0  50962-4 0  9997,2 54774  53.2175 109.5533 0001422  78.1113 282.0038 15.08839867 20042,6917.881,95.438,540.73,538.762,0.0
54774.0,STARLINK-5454,PAYLOAD,2023-04-15 00:27:17,15.088389,0.0001453,53.2171,106.2832,71.9112,288.2039,3.6566e-06,-2.3e-06,0.0,0 STARLINK-5454,1 54774U 22175S   23105.01894954 -.00000230  00000-0  36566-5 0  9992,2 54774  53.2171 106.2832 0001453  71.9112 288.2039 15.08838900 17994,6917.884,95.438,540.754,538.744,0.0
54774.0,STARLINK-5454,PAYLOAD,2023-04-15 06:48:49,15.08841508,0.000125,53.2172,105.0916,89.0279,271.0856,-2.1606e-06,-3.22e-06,0.0,0 STARLINK-5454,1 54774U 22175S   23105.28390704 -.00000322  00000-0 -21606-5 0  9997,2 54774  53.2172 105.0916 0001250  89.0279 271.0856 15.08841508 20195,6917.876,95.437,540.606,538.876,0.0
54774.0,STARLINK-5454,PAYLOAD,2023-04-15 16:21:08,15.08838865,0.000126,53.217,103.3076,85.119,274.9946,-4.641e-05,-1.026e-05,0.0,0 STARLINK-5454,1 54774U 22175S   23105.68135006 -.00001026  00000-0 -46410-4 0  9994,2 54774  53.2170 103.3076 0001260  85.1190 274.9946 15.08838865 20252,6917.884,95.438,540.621,538.877,0.0
54774.0,STARLINK-5454,PAYLOAD,2023-04-16 06:39:37,15.08830641,0.0001323,53.2178,100.6362,84.984,275.1303,-4.1252e-05,-9.44e-06,0.0,0 STARLINK-5454,1 54774U 22175S   23106.27751782 -.00000944  00000-0 -41252-4 0  9992,2 54774  53.2178 100.6362 0001323  84.9840 275.1303 15.08830641 18180,6917.909,95.438,540.689,538.859,0.0
54774.0,STARLINK-5454,PAYLOAD,2023-04-16 16:11:56,15.08835001,0.0001377,53.2184,98.8515,101.2851,258.8296,-7.7857e-05,-1.527e-05,0.0,0 STARLINK-5454,1 54774U 22175S   23106.67495694 -.00001527  00000-0 -77857-4 0  9991,2 54774  53.2184  98.8515 0001377 101.2851 258.8296 15.08835001 20401,6917.896,95.438,540.713,538.808,0.0
54774.0,STARLINK-5454,PAYLOAD,2023-04-17 04:55:01,15.08837725,0.0001496,53.2189,96.4724,98.7782,261.3379,1.971e-05,2.6e-07,0.0,0 STARLINK-5454,1 54774U 22175S   23107.20487388  .00000026  00000-0  19710-4 0  9997,2 54774  53.2189  96.4724 0001496  98.7782 261.3379 15.08837725 18321,6917.887,95.438,540.787,538.717,0.0
54774.0,STARLINK-5454,PAYLOAD,2023-04-17 08:05:47,15.08837108,0.0001298,53.219,95.8775,92.9845,267.1296,3.8097e-05,3.18e-06,0.0,0 STARLINK-5454,1 54774U 22175S   23107.33735380  .00000318  00000-0  38097-4 0  9992,2 54774  53.2190  95.8775 0001298  92.9845 267.1296 15.08837108 20508,6917.889,95.438,540.652,538.856,0.0
